{
  "type": "FeatureCollection",
  "features": [
    {
      "type": "Feature",
      "properties": {
        "norad_id": 54741,
        "name": "GALAXY 35 (G-35)",
        "group": "intelsat",
        "lat": 0.009695136669237634,
        "lon": 106.09085514879894,
        "alt_km": 35795.85511529885,
        "timestamp": "2025-12-25T07:00:33.710471+00:00",
        "meta_object_name": "GALAXY 35 (G-35)",
        "meta_object_id": "2022-170A",
        "meta_epoch": "2025-12-24T19:30:19.264608",
        "meta_mean_motion": 1.00271233,
        "meta_eccentricity": 0.00023038,
        "meta_inclination": 0.0293,
        "meta_ra_of_asc_node": 245.853,
        "meta_arg_of_pericenter": 29.9722,
        "meta_mean_anomaly": 17.2453,
        "meta_ephemeris_type": 0,
        "meta_classification_type": "U",
        "meta_norad_cat_id": 54741,
        "meta_element_set_no": 999,
        "meta_rev_at_epoch": 1114,
        "meta_bstar": 0,
        "meta_mean_motion_dot": -1.41e-06,
        "meta_mean_motion_ddot": 0,
        "tle_line1": "1 54741U 22170A   25358.81272297 -.00000141  00000+0  00000+0 0  9999",
        "tle_line2": "2 54741   0.0293 245.8530 0002303  29.9722  17.2453  1.00271233 11141"
      },
      "geometry": {
        "type": "Point",
        "coordinates": [
          106.09085514879894,
          0.009695136669237634
        ]
      }
    },
    {
      "type": "Feature",
      "properties": {
        "norad_id": 54742,
        "name": "GALAXY 36 (G-36)",
        "group": "intelsat",
        "lat": 0.01823335563933189,
        "lon": 110.19871111026401,
        "alt_km": 35786.813122579944,
        "timestamp": "2025-12-25T07:00:33.710483+00:00",
        "meta_object_name": "GALAXY 36 (G-36)",
        "meta_object_id": "2022-170B",
        "meta_epoch": "2025-12-24T19:31:26.656608",
        "meta_mean_motion": 1.00272338,
        "meta_eccentricity": 3.4e-05,
        "meta_inclination": 0.0115,
        "meta_ra_of_asc_node": 80.8089,
        "meta_arg_of_pericenter": 262.5757,
        "meta_mean_anomaly": 314.0656,
        "meta_ephemeris_type": 0,
        "meta_classification_type": "U",
        "meta_norad_cat_id": 54742,
        "meta_element_set_no": 999,
        "meta_rev_at_epoch": 1102,
        "meta_bstar": 0,
        "meta_mean_motion_dot": -1.64e-06,
        "meta_mean_motion_ddot": 0,
        "tle_line1": "1 54742U 22170B   25358.81350297 -.00000164  00000+0  00000+0 0  9992",
        "tle_line2": "2 54742   0.0115  80.8089 0000340 262.5757 314.0656  1.00272338 11020"
      },
      "geometry": {
        "type": "Point",
        "coordinates": [
          110.19871111026401,
          0.01823335563933189
        ]
      }
    },
    {
      "type": "Feature",
      "properties": {
        "norad_id": 57493,
        "name": "GALAXY 37 (G-37)",
        "group": "intelsat",
        "lat": 0.03250209386072634,
        "lon": 72.1895210925441,
        "alt_km": 35794.0456811475,
        "timestamp": "2025-12-25T07:00:33.710494+00:00",
        "meta_object_name": "GALAXY 37 (G-37)",
        "meta_object_id": "2023-112A",
        "meta_epoch": "2025-12-24T17:37:52.532256",
        "meta_mean_motion": 1.00271631,
        "meta_eccentricity": 0.00020764,
        "meta_inclination": 0.0166,
        "meta_ra_of_asc_node": 13.7195,
        "meta_arg_of_pericenter": 263.5118,
        "meta_mean_anomaly": 313.7338,
        "meta_ephemeris_type": 0,
        "meta_classification_type": "U",
        "meta_norad_cat_id": 57493,
        "meta_element_set_no": 999,
        "meta_rev_at_epoch": 879,
        "meta_bstar": 0,
        "meta_mean_motion_dot": 6.9e-07,
        "meta_mean_motion_ddot": 0,
        "tle_line1": "1 57493U 23112A   25358.73463579  .00000069  00000+0  00000+0 0  9997",
        "tle_line2": "2 57493   0.0166  13.7195 0002076 263.5118 313.7338  1.00271631  8793"
      },
      "geometry": {
        "type": "Point",
        "coordinates": [
          72.1895210925441,
          0.03250209386072634
        ]
      }
    }
  ]
}